{
  "links" : {
    "next" : "https://api.nasa.gov/neo/rest/v1/feed?start_date=2010-06-09&end_date=2010-06-09&detailed=true&api_key=t0TVs3DtDT2H8Oy2Zy8m2eVrNsAVKAexjcZXUckd",
    "prev" : "https://api.nasa.gov/neo/rest/v1/feed?start_date=2010-06-07&end_date=2010-06-07&detailed=true&api_key=t0TVs3DtDT2H8Oy2Zy8m2eVrNsAVKAexjcZXUckd",
    "self" : "https://api.nasa.gov/neo/rest/v1/feed?start_date=2010-06-08&end_date=2010-06-08&detailed=true&api_key=t0TVs3DtDT2H8Oy2Zy8m2eVrNsAVKAexjcZXUckd"
  },
  "element_count" : 5,
  "near_earth_objects" : {
    "2010-06-08" : [ {
      "links" : {
        "self" : "https://api.nasa.gov/neo/rest/v1/neo/2386847?api_key=t0TVs3DtDT2H8Oy2Zy8m2eVrNsAVKAexjcZXUckd"
      },
      "neo_reference_id" : "2386847",
      "name" : "386847 (2010 LR33)",
      "nasa_jpl_url" : "http://ssd.jpl.nasa.gov/sbdb.cgi?sstr=2386847",
      "absolute_magnitude_h" : 18.1,
      "estimated_diameter" : {
        "kilometers" : {
          "estimated_diameter_min" : 0.6376097899,
          "estimated_diameter_max" : 1.4257388333
        },
        "meters" : {
          "estimated_diameter_min" : 637.6097898754,
          "estimated_diameter_max" : 1425.7388332807
        },
        "miles" : {
          "estimated_diameter_min" : 0.3961922327,
          "estimated_diameter_max" : 0.8859127646
        },
        "feet" : {
          "estimated_diameter_min" : 2091.8957030147,
          "estimated_diameter_max" : 4677.6209937807
        }
      },
      "is_potentially_hazardous_asteroid" : true,
      "close_approach_data" : [ {
        "close_approach_date" : "2010-06-08",
        "epoch_date_close_approach" : 1275980400000,
        "relative_velocity" : {
          "kilometers_per_second" : "17.453807783",
          "kilometers_per_hour" : "62833.7080188767",
          "miles_per_hour" : "39042.4226298404"
        },
        "miss_distance" : {
          "astronomical" : "0.2708381671",
          "lunar" : "105.356048584",
          "kilometers" : "40516816",
          "miles" : "25175982"
        },
        "orbiting_body" : "Earth"
      } ],
      "orbital_data" : {
        "orbit_id" : "60",
        "orbit_determination_date" : "2017-04-06 09:22:08",
        "orbit_uncertainty" : "0",
        "minimum_orbit_intersection" : ".0287437",
        "jupiter_tisserand_invariant" : "4.081",
        "epoch_osculation" : "2458000.5",
        "eccentricity" : ".4623683383170584",
        "semi_major_axis" : "1.691946667227618",
        "inclination" : "5.833739622055043",
        "ascending_node_longitude" : "352.1195029100066",
        "orbital_period" : "803.8563204047565",
        "perihelion_distance" : ".9096440981804993",
        "perihelion_argument" : "333.1805647324478",
        "aphelion_distance" : "2.474249236274737",
        "perihelion_time" : "2457811.202794249717",
        "mean_anomaly" : "84.77509268794296",
        "mean_motion" : ".4478412259279536",
        "equinox" : "J2000"
      }
    }, {
      "links" : {
        "self" : "https://api.nasa.gov/neo/rest/v1/neo/3330159?api_key=t0TVs3DtDT2H8Oy2Zy8m2eVrNsAVKAexjcZXUckd"
      },
      "neo_reference_id" : "3330159",
      "name" : "(2006 HZ5)",
      "nasa_jpl_url" : "http://ssd.jpl.nasa.gov/sbdb.cgi?sstr=3330159",
      "absolute_magnitude_h" : 24.5,
      "estimated_diameter" : {
        "kilometers" : {
          "estimated_diameter_min" : 0.0334622374,
          "estimated_diameter_max" : 0.0748238376
        },
        "meters" : {
          "estimated_diameter_min" : 33.4622374455,
          "estimated_diameter_max" : 74.8238376074
        },
        "miles" : {
          "estimated_diameter_min" : 0.0207924639,
          "estimated_diameter_max" : 0.0464933628
        },
        "feet" : {
          "estimated_diameter_min" : 109.7842471007,
          "estimated_diameter_max" : 245.4850393757
        }
      },
      "is_potentially_hazardous_asteroid" : false,
      "close_approach_data" : [ {
        "close_approach_date" : "2010-06-08",
        "epoch_date_close_approach" : 1275980400000,
        "relative_velocity" : {
          "kilometers_per_second" : "4.1280907442",
          "kilometers_per_hour" : "14861.1266792652",
          "miles_per_hour" : "9234.1261857912"
        },
        "miss_distance" : {
          "astronomical" : "0.2856222016",
          "lunar" : "111.1070404053",
          "kilometers" : "42728476",
          "miles" : "26550244"
        },
        "orbiting_body" : "Earth"
      } ],
      "orbital_data" : {
        "orbit_id" : "15",
        "orbit_determination_date" : "2017-04-06 09:08:47",
        "orbit_uncertainty" : "6",
        "minimum_orbit_intersection" : ".0112537",
        "jupiter_tisserand_invariant" : "5.268",
        "epoch_osculation" : "2458000.5",
        "eccentricity" : ".2057508592877221",
        "semi_major_axis" : "1.201576767069808",
        "inclination" : "4.278948795452368",
        "ascending_node_longitude" : "202.8395567016361",
        "orbital_period" : "481.0893142159061",
        "perihelion_distance" : ".9543513147450322",
        "perihelion_argument" : "307.4159385214471",
        "aphelion_distance" : "1.448802219394585",
        "perihelion_time" : "2458120.687920644736",
        "mean_anomaly" : "270.0631625904557",
        "mean_motion" : ".748301800439569",
        "equinox" : "J2000"
      }
    }, {
      "links" : {
        "self" : "https://api.nasa.gov/neo/rest/v1/neo/3530350?api_key=t0TVs3DtDT2H8Oy2Zy8m2eVrNsAVKAexjcZXUckd"
      },
      "neo_reference_id" : "3530350",
      "name" : "(2010 MB)",
      "nasa_jpl_url" : "http://ssd.jpl.nasa.gov/sbdb.cgi?sstr=3530350",
      "absolute_magnitude_h" : 24.6,
      "estimated_diameter" : {
        "kilometers" : {
          "estimated_diameter_min" : 0.0319561887,
          "estimated_diameter_max" : 0.0714562102
        },
        "meters" : {
          "estimated_diameter_min" : 31.9561886721,
          "estimated_diameter_max" : 71.4562101727
        },
        "miles" : {
          "estimated_diameter_min" : 0.0198566489,
          "estimated_diameter_max" : 0.0444008168
        },
        "feet" : {
          "estimated_diameter_min" : 104.8431420431,
          "estimated_diameter_max" : 234.436392583
        }
      },
      "is_potentially_hazardous_asteroid" : false,
      "close_approach_data" : [ {
        "close_approach_date" : "2010-06-08",
        "epoch_date_close_approach" : 1275980400000,
        "relative_velocity" : {
          "kilometers_per_second" : "6.8341765297",
          "kilometers_per_hour" : "24603.0355067654",
          "miles_per_hour" : "15287.3694791899"
        },
        "miss_distance" : {
          "astronomical" : "0.0730946764",
          "lunar" : "28.4338283539",
          "kilometers" : "10934808",
          "miles" : "6794574.5"
        },
        "orbiting_body" : "Earth"
      } ],
      "orbital_data" : {
        "orbit_id" : "9",
        "orbit_determination_date" : "2017-04-06 08:57:17",
        "orbit_uncertainty" : "7",
        "minimum_orbit_intersection" : ".0657764",
        "jupiter_tisserand_invariant" : "6.315",
        "epoch_osculation" : "2458000.5",
        "eccentricity" : ".1560697650829528",
        "semi_major_axis" : ".9479352380355894",
        "inclination" : "11.65717453150284",
        "ascending_node_longitude" : "87.80572635647023",
        "orbital_period" : "337.1059582098587",
        "perihelion_distance" : ".799991208121522",
        "perihelion_argument" : "19.14438732646055",
        "aphelion_distance" : "1.095879267949657",
        "perihelion_time" : "2457922.703565458129",
        "mean_anomaly" : "83.07986184462067",
        "mean_motion" : "1.067913489016083",
        "equinox" : "J2000"
      }
    } ]
  }
}